{
  "type": "FeatureCollection",
  "features": [
    {
      "type": "Feature",
      "properties": {
        "norad_id": 38867,
        "name": "INTELSAT 23 (IS-23)",
        "group": "intelsat",
        "lat": -0.005486261364347607,
        "lon": 16.587800471796264,
        "alt_km": 35786.230518038654,
        "timestamp": "2025-12-20T22:39:10.313304+00:00",
        "meta_object_name": "INTELSAT 23 (IS-23)",
        "meta_object_id": "2012-057A",
        "meta_epoch": "2025-12-20T11:15:57.398976",
        "meta_mean_motion": 1.00269534,
        "meta_eccentricity": 6.091e-05,
        "meta_inclination": 0.0148,
        "meta_ra_of_asc_node": 49.0714,
        "meta_arg_of_pericenter": 249.8393,
        "meta_mean_anomaly": 266.4118,
        "meta_ephemeris_type": 0,
        "meta_classification_type": "U",
        "meta_norad_cat_id": 38867,
        "meta_element_set_no": 999,
        "meta_rev_at_epoch": 4816,
        "meta_bstar": 0,
        "meta_mean_motion_dot": -2.61e-06,
        "meta_mean_motion_ddot": 0,
        "tle_line1": "1 38867U 12057A   25354.46941434 -.00000261  00000+0  00000+0 0  9999",
        "tle_line2": "2 38867   0.0148  49.0714 0000609 249.8393 266.4118  1.00269534 48162"
      },
      "geometry": {
        "type": "Point",
        "coordinates": [
          16.587800471796264,
          -0.005486261364347607
        ]
      }
    },
    {
      "type": "Feature",
      "properties": {
        "norad_id": 39360,
        "name": "FM-6",
        "group": "intelsat",
        "lat": -0.022469092569905882,
        "lon": -46.57035123084294,
        "alt_km": 35793.49595050133,
        "timestamp": "2025-12-20T22:39:10.313315+00:00",
        "meta_object_name": "FM-6",
        "meta_object_id": "2013-058A",
        "meta_epoch": "2025-12-20T10:57:59.119200",
        "meta_mean_motion": 1.00274457,
        "meta_eccentricity": 0.00029342,
        "meta_inclination": 0.0121,
        "meta_ra_of_asc_node": 67.0119,
        "meta_arg_of_pericenter": 114.7093,
        "meta_mean_anomaly": 315.9111,
        "meta_ephemeris_type": 0,
        "meta_classification_type": "U",
        "meta_norad_cat_id": 39360,
        "meta_element_set_no": 999,
        "meta_rev_at_epoch": 4428,
        "meta_bstar": 0,
        "meta_mean_motion_dot": 6e-08,
        "meta_mean_motion_ddot": 0,
        "tle_line1": "1 39360U 13058A   25354.45693425  .00000006  00000+0  00000+0 0  9999",
        "tle_line2": "2 39360   0.0121  67.0119 0002934 114.7093 315.9111  1.00274457 44283"
      },
      "geometry": {
        "type": "Point",
        "coordinates": [
          -46.57035123084294,
          -0.022469092569905882
        ]
      }
    },
    {
      "type": "Feature",
      "properties": {
        "norad_id": 40271,
        "name": "INTELSAT 30 (IS-30)",
        "group": "intelsat",
        "lat": -0.02342937851200302,
        "lon": -25.501012914268884,
        "alt_km": 35786.81322961858,
        "timestamp": "2025-12-20T22:39:10.313325+00:00",
        "meta_object_name": "INTELSAT 30 (IS-30)",
        "meta_object_id": "2014-062A",
        "meta_epoch": "2025-12-20T12:34:47.341056",
        "meta_mean_motion": 1.00276751,
        "meta_eccentricity": 0.00014642,
        "meta_inclination": 0.0135,
        "meta_ra_of_asc_node": 19.8548,
        "meta_arg_of_pericenter": 64.3977,
        "meta_mean_anomaly": 98.7545,
        "meta_ephemeris_type": 0,
        "meta_classification_type": "U",
        "meta_norad_cat_id": 40271,
        "meta_element_set_no": 999,
        "meta_rev_at_epoch": 500,
        "meta_bstar": 0,
        "meta_mean_motion_dot": -1.28e-06,
        "meta_mean_motion_ddot": 0,
        "tle_line1": "1 40271U 14062A   25354.52415904 -.00000128  00000+0  00000+0 0  9996",
        "tle_line2": "2 40271   0.0135  19.8548 0001464  64.3977  98.7545  1.00276751  5003"
      },
      "geometry": {
        "type": "Point",
        "coordinates": [
          -25.501012914268884,
          -0.02342937851200302
        ]
      }
    },
    {
      "type": "Feature",
      "properties": {
        "norad_id": 40333,
        "name": "DIRECTV 14",
        "group": "intelsat",
        "lat": -0.0163466464924579,
        "lon": -29.66456452873494,
        "alt_km": 35788.003683774965,
        "timestamp": "2025-12-20T22:39:10.313336+00:00",
        "meta_object_name": "DIRECTV 14",
        "meta_object_id": "2014-078B",
        "meta_epoch": "2025-12-20T12:09:57.950208",
        "meta_mean_motion": 1.00270832,
        "meta_eccentricity": 3.933e-05,
        "meta_inclination": 0.0187,
        "meta_ra_of_asc_node": 347.3477,
        "meta_arg_of_pericenter": 155.8476,
        "meta_mean_anomaly": 29.4192,
        "meta_ephemeris_type": 0,
        "meta_classification_type": "U",
        "meta_norad_cat_id": 40333,
        "meta_element_set_no": 999,
        "meta_rev_at_epoch": 4025,
        "meta_bstar": 0,
        "meta_mean_motion_dot": -1.02e-06,
        "meta_mean_motion_ddot": 0,
        "tle_line1": "1 40333U 14078B   25354.50692072 -.00000102  00000+0  00000+0 0  9995",
        "tle_line2": "2 40333   0.0187 347.3477 0000393 155.8476  29.4192  1.00270832 40258"
      },
      "geometry": {
        "type": "Point",
        "coordinates": [
          -29.66456452873494,
          -0.0163466464924579
        ]
      }
    },
    {
      "type": "Feature",
      "properties": {
        "norad_id": 40663,
        "name": "DIRECTV 15",
        "group": "intelsat",
        "lat": -0.03455338010543001,
        "lon": -33.33078354591187,
        "alt_km": 35787.88271530735,
        "timestamp": "2025-12-20T22:39:10.313346+00:00",
        "meta_object_name": "DIRECTV 15",
        "meta_object_id": "2015-026A",
        "meta_epoch": "2025-12-20T12:06:43.368768",
        "meta_mean_motion": 1.00269898,
        "meta_eccentricity": 3.215e-05,
        "meta_inclination": 0.0255,
        "meta_ra_of_asc_node": 13.1615,
        "meta_arg_of_pericenter": 112.234,
        "meta_mean_anomaly": 42.7419,
        "meta_ephemeris_type": 0,
        "meta_classification_type": "U",
        "meta_norad_cat_id": 40663,
        "meta_element_set_no": 999,
        "meta_rev_at_epoch": 3867,
        "meta_bstar": 0,
        "meta_mean_motion_dot": 0,
        "meta_mean_motion_ddot": 0,
        "tle_line1": "1 40663U 15026A   25354.50466862  .00000000  00000+0  00000+0 0  9997",
        "tle_line2": "2 40663   0.0255  13.1615 0000321 112.2340  42.7419  1.00269898 38673"
      },
      "geometry": {
        "type": "Point",
        "coordinates": [
          -33.33078354591187,
          -0.03455338010543001
        ]
      }
    },
    {
      "type": "Feature",
      "properties": {
        "norad_id": 40664,
        "name": "SKY MEXICO-1",
        "group": "intelsat",
        "lat": 0.0013399598045471626,
        "lon": -9.180862664162298,
        "alt_km": 35781.953793589855,
        "timestamp": "2025-12-20T22:39:10.313357+00:00",
        "meta_object_name": "SKY MEXICO-1",
        "meta_object_id": "2015-026B",
        "meta_epoch": "2025-12-20T12:05:09.617856",
        "meta_mean_motion": 1.00271901,
        "meta_eccentricity": 0.00023284,
        "meta_inclination": 0.0138,
        "meta_ra_of_asc_node": 342.5656,
        "meta_arg_of_pericenter": 303.1967,
        "meta_mean_anomaly": 266.1047,
        "meta_ephemeris_type": 0,
        "meta_classification_type": "U",
        "meta_norad_cat_id": 40664,
        "meta_element_set_no": 999,
        "meta_rev_at_epoch": 3866,
        "meta_bstar": 0,
        "meta_mean_motion_dot": -2.11e-06,
        "meta_mean_motion_ddot": 0,
        "tle_line1": "1 40664U 15026B   25354.50358354 -.00000211  00000+0  00000+0 0  9999",
        "tle_line2": "2 40664   0.0138 342.5656 0002328 303.1967 266.1047  1.00271901 38669"
      },
      "geometry": {
        "type": "Point",
        "coordinates": [
          -9.180862664162298,
          0.0013399598045471626
        ]
      }
    },
    {
      "type": "Feature",
      "properties": {
        "norad_id": 40874,
        "name": "INTELSAT 34 (IS-34)",
        "group": "intelsat",
        "lat": 0.019481941606278547,
        "lon": 14.050318325287845,
        "alt_km": 35788.786520734044,
        "timestamp": "2025-12-20T22:39:10.313367+00:00",
        "meta_object_name": "INTELSAT 34 (IS-34)",
        "meta_object_id": "2015-039A",
        "meta_epoch": "2025-12-20T11:15:19.958400",
        "meta_mean_motion": 1.00271747,
        "meta_eccentricity": 7.994e-05,
        "meta_inclination": 0.0138,
        "meta_ra_of_asc_node": 332.6184,
        "meta_arg_of_pericenter": 183.5358,
        "meta_mean_anomaly": 46.4832,
        "meta_ephemeris_type": 0,
        "meta_classification_type": "U",
        "meta_norad_cat_id": 40874,
        "meta_element_set_no": 999,
        "meta_rev_at_epoch": 3783,
        "meta_bstar": 0,
        "meta_mean_motion_dot": -2.62e-06,
        "meta_mean_motion_ddot": 0,
        "tle_line1": "1 40874U 15039A   25354.46898100 -.00000262  00000+0  00000+0 0  9995",
        "tle_line2": "2 40874   0.0138 332.6184 0000799 183.5358  46.4832  1.00271747 37839"
      },
      "geometry": {
        "type": "Point",
        "coordinates": [
          14.050318325287845,
          0.019481941606278547
        ]
      }
    }
  ]
}